{
    "links": {
        "self": "http://www.neowsapp.com/rest/v1/neo/3678248?api_key=iIulBulltgU6a56xZRHN4H3l9WmuAYTsLGpBGhQ2"
    },
    "id": "3678248",
    "neo_reference_id": "3678248",
    "name": "(2014 OG300)",
    "designation": "2014 OG300",
    "nasa_jpl_url": "http://ssd.jpl.nasa.gov/sbdb.cgi?sstr=3678248",
    "absolute_magnitude_h": 24.3,
    "estimated_diameter": {
        "kilometers": {
            "estimated_diameter_min": 0.0366906138,
            "estimated_diameter_max": 0.0820427065
        },
        "meters": {
            "estimated_diameter_min": 36.6906137531,
            "estimated_diameter_max": 82.0427064882
        },
        "miles": {
            "estimated_diameter_min": 0.0227984834,
            "estimated_diameter_max": 0.0509789586
        },
        "feet": {
            "estimated_diameter_min": 120.3760332259,
            "estimated_diameter_max": 269.1689931548
        }
    },
    "is_potentially_hazardous_asteroid": false,
    "close_approach_data": [
        {
            "close_approach_date": "2001-08-15",
            "close_approach_date_full": "2001-Aug-15 01:59",
            "epoch_date_close_approach": 997840740000,
            "relative_velocity": {
                "kilometers_per_second": "12.6326985528",
                "kilometers_per_hour": "45477.7147900508",
                "miles_per_hour": "28258.0833927402"
            },
            "miss_distance": {
                "astronomical": "0.0437585129",
                "lunar": "17.0220615181",
                "kilometers": "6546180.324207523",
                "miles": "4067607.8359808974"
            },
            "orbiting_body": "Earth"
        },
        {
            "close_approach_date": "2012-01-20",
            "close_approach_date_full": "2012-Jan-20 22:28",
            "epoch_date_close_approach": 1327098480000,
            "relative_velocity": {
                "kilometers_per_second": "10.4967115092",
                "kilometers_per_hour": "37788.1614331301",
                "miles_per_hour": "23480.0939749357"
            },
            "miss_distance": {
                "astronomical": "0.1147187168",
                "lunar": "44.6255808352",
                "kilometers": "17161675.682413216",
                "miles": "10663770.7834297408"
            },
            "orbiting_body": "Earth"
        },
        {
            "close_approach_date": "2014-08-16",
            "close_approach_date_full": "2014-Aug-16 08:59",
            "epoch_date_close_approach": 1408179540000,
            "relative_velocity": {
                "kilometers_per_second": "12.1528985583",
                "kilometers_per_hour": "43750.4348099801",
                "miles_per_hour": "27184.8187851235"
            },
            "miss_distance": {
                "astronomical": "0.0548977544",
                "lunar": "21.3552264616",
                "kilometers": "8212587.126023128",
                "miles": "5103065.0078420464"
            },
            "orbiting_body": "Earth"
        },
        {
            "close_approach_date": "2025-01-22",
            "close_approach_date_full": "2025-Jan-22 21:29",
            "epoch_date_close_approach": 1737581340000,
            "relative_velocity": {
                "kilometers_per_second": "11.6129952866",
                "kilometers_per_hour": "41806.7830318565",
                "miles_per_hour": "25977.1091566555"
            },
            "miss_distance": {
                "astronomical": "0.0711496748",
                "lunar": "27.6772234972",
                "kilometers": "10643839.801272676",
                "miles": "6613775.3676718888"
            },
            "orbiting_body": "Earth"
        },
        {
            "close_approach_date": "2027-08-19",
            "close_approach_date_full": "2027-Aug-19 03:40",
            "epoch_date_close_approach": 1818646800000,
            "relative_velocity": {
                "kilometers_per_second": "11.0318885556",
                "kilometers_per_hour": "39714.7988001611",
                "miles_per_hour": "24677.2315100223"
            },
            "miss_distance": {
                "astronomical": "0.0928547092",
                "lunar": "36.1204818788",
                "kilometers": "13890866.715789404",
                "miles": "8631384.3345816152"
            },
            "orbiting_body": "Earth"
        }
    ],
    "orbital_data": {
        "orbit_id": "9",
        "orbit_determination_date": "2017-04-06 08:39:27",
        "first_observation_date": "2014-07-29",
        "last_observation_date": "2014-08-19",
        "data_arc_in_days": 21,
        "observations_used": 24,
        "orbit_uncertainty": "7",
        "minimum_orbit_intersection": ".034173",
        "jupiter_tisserand_invariant": "4.954",
        "epoch_osculation": "2459000.5",
        "eccentricity": ".4003186405526805",
        "semi_major_axis": "1.278366715251556",
        "inclination": "13.34672883300164",
        "ascending_node_longitude": "313.1289805258684",
        "orbital_period": "527.9364022642537",
        "perihelion_distance": ".7666126896742574",
        "perihelion_argument": "92.91020372470395",
        "aphelion_distance": "1.790120740828854",
        "perihelion_time": "2459058.398687438763",
        "mean_anomaly": "320.5188666881856",
        "mean_motion": ".6819003168866642",
        "equinox": "J2000",
        "orbit_class": {
            "orbit_class_type": "APO",
            "orbit_class_description": "Near-Earth asteroid orbits which cross the Earth’s orbit similar to that of 1862 Apollo",
            "orbit_class_range": "a (semi-major axis) > 1.0 AU; q (perihelion) < 1.017 AU"
        }
    },
    "is_sentry_object": false
}